{
"type": "FeatureCollection",
"name": "Deelgebied - B",
"features": [
{ "type": "Feature", "properties": { "Name": "Bravo", "description": null }, "geometry": { "type": "Polygon", "coordinates": [ [ [ 5.9291839599609, 52.467305322032999 ], [ 5.9355998039246, 52.477722724204 ], [ 5.9571218490601, 52.483956301051997 ], [ 5.9658336639404, 52.476768660719998 ], [ 6.0217094421387, 52.509639248363001 ], [ 6.0445189476013, 52.504062386024998 ], [ 6.0588043928146, 52.49775654482 ], [ 6.0669100284576, 52.483923632615998 ], [ 6.0879278182983, 52.477997176991003 ], [ 6.101907491684, 52.467468725669001 ], [ 6.1021542549133, 52.444802117899997 ], [ 6.1133015155792, 52.438504130570003 ], [ 6.1186122894287, 52.432833209816003 ], [ 6.1160038411617, 52.430502001192004 ], [ 6.1183735728264, 52.427856653713 ], [ 6.1173268407583, 52.424702063523 ], [ 6.1133618652821, 52.419139376141999 ], [ 6.114529967308, 52.414399312962999 ], [ 6.1109626293182, 52.407792639093003 ], [ 6.1302638053894, 52.399813573205002 ], [ 6.1256048083305, 52.393707205902999 ], [ 6.1255069077015, 52.384053297709997 ], [ 6.1219757795334, 52.380475208924999 ], [ 6.1178317666054, 52.378662723872999 ], [ 6.1027195304632, 52.375380168284998 ], [ 6.080397516489, 52.371678148381001 ], [ 6.0776388645172, 52.368885155263001 ], [ 6.0775288939476, 52.363927587470002 ], [ 6.0803338140249, 52.361849485389001 ], [ 6.0910351574421, 52.360819611388003 ], [ 6.0945850610733, 52.356872699020002 ], [ 6.0896377265453, 52.354183617003997 ], [ 6.0785105824471, 52.352962295449998 ], [ 6.0759081691504, 52.350647753474 ], [ 6.0758832748979, 52.345344707930998 ], [ 6.0750859044492, 52.344550663283002 ], [ 6.0757905710489, 52.344464483464002 ], [ 6.0753794386983, 52.341756467210999 ], [ 6.0758909862489, 52.341762049019998 ], [ 6.0766600258648, 52.339879812924003 ], [ 6.0754978749901, 52.334824597248002 ], [ 6.0738636553288, 52.334463052951001 ], [ 6.0754454880953, 52.333419428695997 ], [ 6.0744461975992, 52.332725816740002 ], [ 6.0731035843492, 52.328832639677998 ], [ 6.0710160713643, 52.322990899594998 ], [ 6.0704872990027, 52.322745323170999 ], [ 6.0709884949028, 52.322080054476999 ], [ 6.0690726432949, 52.321956123992003 ], [ 6.0675353603438, 52.321658079743003 ], [ 6.0665130615234, 52.320730479418998 ], [ 6.0661911754869, 52.319453886063002 ], [ 6.0663842735812, 52.317862457323997 ], [ 6.07183448039, 52.317093000096001 ], [ 6.073379390873, 52.317818854678002 ], [ 6.0795591585338, 52.317600302815002 ], [ 6.0799400112592, 52.317228690436998 ], [ 6.0798729455564, 52.316177159473 ], [ 6.0808358481154, 52.311977300133996 ], [ 6.0848591197282, 52.311758719423999 ], [ 6.0830459045246, 52.308470295897003 ], [ 6.0832148732152, 52.303134751769001 ], [ 6.0840704874136, 52.303257229381998 ], [ 6.0841938480735, 52.301612732392002 ], [ 6.0864334716462, 52.302005311160002 ], [ 6.0880722803995, 52.300455900910997 ], [ 6.0909207444638, 52.300086361474001 ], [ 6.0989351011813, 52.300292057362 ], [ 6.0988384578377, 52.301285053249003 ], [ 6.1014025658369, 52.301490743568003 ], [ 6.1019496945664, 52.299828714878998 ], [ 6.1042134370655, 52.297904173231998 ], [ 6.1051038885489, 52.295139659150003 ], [ 6.10556518659, 52.292873689525997 ], [ 6.1105003673583, 52.289404547232998 ], [ 6.1117448285222, 52.287195222275997 ], [ 6.1115729995072, 52.279756917492001 ], [ 6.1131822410971, 52.277376439313997 ], [ 6.1166797578335, 52.275521004345002 ], [ 6.240961253643, 52.263687554904998 ], [ 6.2701410055161, 52.249470765780998 ], [ 6.2709979712963, 52.225854984811001 ], [ 6.2938275933266, 52.231885163789002 ], [ 6.2981177866459, 52.225087702651997 ], [ 6.3381135463715, 52.227543123182997 ], [ 6.3499554991722, 52.241704527605002 ], [ 6.3817101716995, 52.246613394891 ], [ 6.416554749012, 52.242693242442002 ], [ 6.427366733551, 52.225315259878997 ], [ 6.4399811625481, 52.216608105553 ], [ 6.4546555280685, 52.202218417418003 ], [ 6.4707541465759, 52.200124086907003 ], [ 6.4259719848633, 52.147816036320997 ], [ 6.1027591416832, 52.040605948604998 ], [ 6.0911290833947, 52.035933373345003 ], [ 6.078656792349, 52.028406443744998 ], [ 6.0589810841448, 52.018236832470997 ], [ 6.0549858783932, 52.016882454699001 ], [ 6.0524091859897, 52.016746634028998 ], [ 6.0507333377711, 52.016531558940997 ], [ 6.0466958314325, 52.015044644100001 ], [ 6.0306433251142, 52.010757112176002 ], [ 6.0168846957472, 52.007133863268997 ], [ 6.010594367981, 52.006151435878998 ], [ 5.9446334838867, 51.985884478058999 ], [ 5.9347200393677, 52.004936205492001 ], [ 5.8961391448975, 52.011989365279 ], [ 5.8515930175781, 52.021233396705 ], [ 5.9291839599609, 52.467305322032999 ] ] ] } }
]
}
