{
"type": "FeatureCollection",
"name": "Deelgebied - D",
"features": [
{ "type": "Feature", "properties": { "Name": "Delta", "description": null }, "geometry": { "type": "Polygon", "coordinates": [ [ [ 5.8505630493164, 51.890265824069999 ], [ 5.8531379699707, 51.966057850188001 ], [ 5.8706903457642, 51.97297173071 ], [ 5.9253215789795, 51.984642267058 ], [ 5.9446334838867, 51.985884478058999 ], [ 6.010594367981, 52.006151435878998 ], [ 6.0416221618652, 51.942148492442001 ], [ 6.0497760772705, 51.913938110162 ], [ 6.0562133789062, 51.885921902905999 ], [ 6.0631656646729, 51.865574051041001 ], [ 6.0598263144493, 51.857586725558001 ], [ 6.0506504774094, 51.857020171221002 ], [ 6.0553014278412, 51.852494106777002 ], [ 6.0323309898376, 51.842380054366998 ], [ 6.0294637084007, 51.845551710540001 ], [ 6.0176700353622, 51.841511704101002 ], [ 6.0046747326851, 51.833440548310001 ], [ 5.9865295886993, 51.830672488243998 ], [ 5.962700843811, 51.836785198675997 ], [ 5.9450840950012, 51.823763198499996 ], [ 5.9577333927155, 51.817038553528 ], [ 5.9470769762993, 51.816365370588002 ], [ 5.947750210762, 51.811022660694 ], [ 5.96405133605, 51.806971263846997 ], [ 5.9789791703224, 51.797824016691003 ], [ 5.9717248007655, 51.789697332896999 ], [ 5.9747701138258, 51.785179847796996 ], [ 5.9897871315479, 51.783153033607 ], [ 5.9818890318274, 51.773669436454 ], [ 5.992187038064, 51.770132958044996 ], [ 5.9908129088581, 51.76613370239 ], [ 5.9743325784802, 51.759584117167996 ], [ 5.955792311579, 51.752289703965999 ], [ 5.9520149230957, 51.744356390187001 ], [ 5.943421125412, 51.740974983081003 ], [ 5.9331107139587, 51.741845271176999 ], [ 5.9324133396149, 51.748773760806003 ], [ 5.9142065048218, 51.752088165766999 ], [ 5.9024906158447, 51.76895531521 ], [ 5.8924269676208, 51.779032753221998 ], [ 5.8682870864868, 51.77572696427 ], [ 5.8661198616028, 51.757441179941999 ], [ 5.8451235294342, 51.759240872200003 ], [ 5.8200073242188, 51.757640411398 ], [ 5.804386138916, 51.813443706413999 ], [ 5.8367443084717, 51.849644374405003 ], [ 5.8505630493164, 51.890265824069999 ] ] ] } }
]
}
