{
"type": "FeatureCollection",
"name": "Deelgebied - A",
"features": [
{ "type": "Feature", "properties": { "Name": "Alpha", "description": null}, "geometry": { "type": "Polygon", "coordinates": [ [ [ 5.4217529296874, 52.250715470956997 ], [ 5.4036855697632, 52.246748056732002 ], [ 5.393208861351, 52.220353097698997 ], [ 5.406896173954, 52.213500459012003 ], [ 5.4095542430878, 52.218558695934 ], [ 5.420667976141, 52.213436364594997 ], [ 5.4287776350975, 52.208602721745002 ], [ 5.4362656921148, 52.205278362599003 ], [ 5.4368014633656, 52.205583277099002 ], [ 5.4395896196365, 52.204615104696998 ], [ 5.4389016330242, 52.184048376728001 ], [ 5.440032184124, 52.173300043060003 ], [ 5.438441298902, 52.173016702574003 ], [ 5.4402407258749, 52.169574937976002 ], [ 5.4462109878659, 52.167769848291002 ], [ 5.4550565779209, 52.167017603151997 ], [ 5.4728865623474, 52.163903197643002 ], [ 5.4731065034866, 52.162948925179002 ], [ 5.4723823070526, 52.162889693799002 ], [ 5.4726934432983, 52.161876166873 ], [ 5.4754088446498, 52.162172329725998 ], [ 5.4790254682302, 52.161652398077997 ], [ 5.480346120894, 52.161013992683003 ], [ 5.4807655513287, 52.160270271758002 ], [ 5.4800204001367, 52.160066239951 ], [ 5.4792323336005, 52.158466861450997 ], [ 5.4802311211824, 52.157295263776 ], [ 5.4827319458127, 52.158374714436 ], [ 5.4842457175255, 52.158216747681998 ], [ 5.4826404154301, 52.151568471867002 ], [ 5.4812067747116, 52.150581019489998 ], [ 5.4837746545672, 52.149451182531003 ], [ 5.4872866719961, 52.148637320081001 ], [ 5.4928800836205, 52.147783941758 ], [ 5.4965565539896, 52.147291410759998 ], [ 5.4989455640316, 52.147404565815002 ], [ 5.4973724484444, 52.141462507829999 ], [ 5.4998705908656, 52.141139046187 ], [ 5.5021541565657, 52.139735705744002 ], [ 5.5097682774067, 52.13824589419 ], [ 5.5125115066767, 52.137098458395997 ], [ 5.5139672756195, 52.135977334042003 ], [ 5.5124035477638, 52.134298064166998 ], [ 5.5123847723007, 52.132131383233997 ], [ 5.5017015337944, 52.129740667711999 ], [ 5.4979705810547, 52.130221455517997 ], [ 5.4969352483749, 52.124899569881002 ], [ 5.4963277280331, 52.124557050520998 ], [ 5.4947331547737, 52.124741484349002 ], [ 5.4951341450214, 52.122212039579999 ], [ 5.4966864734888, 52.120525663309003 ], [ 5.4963934421539, 52.119708801862998 ], [ 5.5037480592728, 52.116678378624002 ], [ 5.5074897408485, 52.115716505565999 ], [ 5.5077981948853, 52.113884936468999 ], [ 5.506320297718, 52.114313187782003 ], [ 5.5038553476334, 52.113687280629001 ], [ 5.5024203658104, 52.114972027923997 ], [ 5.4987967014313, 52.116230385534998 ], [ 5.4924935102463, 52.115769211477001 ], [ 5.4892989993095, 52.116250150031 ], [ 5.4862761497498, 52.115413445370997 ], [ 5.4914286732674, 52.114458133448998 ], [ 5.4941779375076, 52.11271216566 ], [ 5.4936850816011, 52.110964482256001 ], [ 5.4893298447132, 52.108584162343 ], [ 5.4841384291649, 52.106406346587001 ], [ 5.4848277568817, 52.093244936547002 ], [ 5.476590692997, 52.090364330404 ], [ 5.4719585180283, 52.089382113252 ], [ 5.4638502001762, 52.083310344796999 ], [ 5.4596672952175, 52.082014795408 ], [ 5.4602795094252, 52.080997779274 ], [ 5.4593467712402, 52.080349975715997 ], [ 5.4917907714844, 52.000524113476999 ], [ 5.6658554077148, 52.015317436634 ], [ 5.8515930175781, 52.021233396705 ], [ 5.9291839599609, 52.467305322032999 ], [ 5.9118461608887, 52.496368550507 ], [ 5.8780288696289, 52.521234766555999 ], [ 5.8606910705566, 52.516638711003999 ], [ 5.8441757864666, 52.483502532703 ], [ 5.8204793930054, 52.453917235802002 ], [ 5.7895372297613, 52.427337572817997 ], [ 5.7431888580322, 52.404513476592001 ], [ 5.6123399734497, 52.360925261595 ], [ 5.5571685964369, 52.319063385871999 ], [ 5.5276679992676, 52.268157373767998 ], [ 5.4958143998489, 52.266277401670997 ], [ 5.4217529296874, 52.250715470956997 ] ] ] } }
]
}
