{
"type": "FeatureCollection",
"name": "Deelgebied - F",
"features": [
{ "type": "Feature", "properties": { "Name": "Foxtrot", "description": null }, "geometry": { "type": "Polygon", "coordinates": [ [ [ 5.8515930175781, 52.021233396705 ], [ 5.8961391448975, 52.011989365279 ], [ 5.9347200393677, 52.004936205492001 ], [ 5.9446334838867, 51.985884478058999 ], [ 5.9253215789795, 51.984642267058 ], [ 5.8706903457642, 51.97297173071 ], [ 5.8531379699707, 51.966057850188001 ], [ 5.8505630493164, 51.890265824069999 ], [ 5.7424807548523, 51.900832513212997 ], [ 5.5890798568726, 51.911820292963 ], [ 5.5153298377991, 51.906287024199997 ], [ 5.469388961792, 51.896516095811002 ], [ 5.4094791412354, 51.886703309936998 ], [ 5.1233196258545, 51.903586329698001 ], [ 5.132063627243, 51.914828225390004 ], [ 5.1360011100769, 51.914315335871002 ], [ 5.13547539711, 51.918196605809001 ], [ 5.1459360122681, 51.927582399403001 ], [ 5.1480670273304, 51.929346772298999 ], [ 5.1487999409437, 51.930460478886999 ], [ 5.1483097672462, 51.930952303757998 ], [ 5.1476620137691, 51.932028552410003 ], [ 5.1484324783087, 51.933122346864998 ], [ 5.1494389772415, 51.933726599501 ], [ 5.1506754755974, 51.933471090312999 ], [ 5.1511609554291, 51.933652179498999 ], [ 5.1536124944687, 51.937077025481997 ], [ 5.1556134223938, 51.939152311944 ], [ 5.1752471923828, 51.962144359065 ], [ 5.180139541626, 51.967432779465 ], [ 5.1829826831818, 51.969402556559999 ], [ 5.1930356025696, 51.967564981980999 ], [ 5.1993978023529, 51.965991746756004 ], [ 5.2073049545288, 51.968040907807001 ], [ 5.2127766609192, 51.970261828170003 ], [ 5.2215850353241, 51.974465411800999 ], [ 5.2263110876083, 51.979488044897003 ], [ 5.2371311187744, 51.983241434598 ], [ 5.2437521517277, 51.984296192831003 ], [ 5.2571967244148, 51.981016201460001 ], [ 5.2676063776016, 51.974640552560999 ], [ 5.2779972553253, 51.967069220536999 ], [ 5.2964615821838, 51.962104693554998 ], [ 5.3055220842361, 51.959661891562 ], [ 5.3163702785969, 51.954819692710998 ], [ 5.3309950232506, 51.956113145711001 ], [ 5.3399884700775, 51.960815545357001 ], [ 5.3497356176376, 51.968949779890998 ], [ 5.3610277175903, 51.970949233595 ], [ 5.3766167163849, 51.968867155917998 ], [ 5.3941959142685, 51.971633323718002 ], [ 5.4189848899841, 51.977148625326002 ], [ 5.4330289363861, 51.984794241529997 ], [ 5.48415184021, 51.98250135448 ], [ 5.4917907714844, 52.000524113476999 ], [ 5.6658554077148, 52.015317436634 ], [ 5.8515930175781, 52.021233396705 ] ] ] } }
]
}
