{
"type": "FeatureCollection",
"name": "Deelgebied - E",
"features": [
{ "type": "Feature", "properties": { "Name": "Echo", "description": null }, "geometry": { "type": "Polygon", "coordinates": [ [ [ 5.8505630493164, 51.890265824069999 ], [ 5.8367443084717, 51.849644374405003 ], [ 5.804386138916, 51.813443706413999 ], [ 5.8200073242188, 51.757640411398 ], [ 5.7766628265381, 51.752008463491002 ], [ 5.753960609436, 51.755090182377998 ], [ 5.7437038421631, 51.760137371097002 ], [ 5.7320308685303, 51.772487321682 ], [ 5.7179546356201, 51.775687134011001 ], [ 5.7076549530029, 51.775587558208997 ], [ 5.7013034820557, 51.778355683640001 ], [ 5.6973230838776, 51.784515314986997 ], [ 5.6893944740295, 51.790461747329999 ], [ 5.6708228588104, 51.792585283191997 ], [ 5.6632375717163, 51.794602549651003 ], [ 5.6563550233841, 51.798530651699998 ], [ 5.6513607501984, 51.803732206155999 ], [ 5.6459373235703, 51.814027391129002 ], [ 5.6401705741882, 51.818696596697002 ], [ 5.6314118206501, 51.819843926852002 ], [ 5.6178465485573, 51.819930141232 ], [ 5.6030756235123, 51.826468689636997 ], [ 5.5939735472202, 51.829207170815003 ], [ 5.5838415026665, 51.829611629710001 ], [ 5.5730228126049, 51.827576037428003 ], [ 5.5618607997894, 51.82851096257 ], [ 5.5524368584156, 51.825613294564 ], [ 5.5478194355965, 51.819320005145002 ], [ 5.5383954942226, 51.816103390271998 ], [ 5.5303448438644, 51.818192558028002 ], [ 5.5180884897709, 51.818371625043 ], [ 5.5099520087242, 51.823431632037 ], [ 5.4971122741699, 51.830791833265003 ], [ 5.4853749275208, 51.829359672136 ], [ 5.4736697673798, 51.813894736176003 ], [ 5.4633378982544, 51.810525169439003 ], [ 5.4494762420654, 51.809994506046003 ], [ 5.4358050227165, 51.809553387346 ], [ 5.4259103536606, 51.81208395702 ], [ 5.4191055893898, 51.817161250813001 ], [ 5.4143607616425, 51.821813552683999 ], [ 5.4060244560242, 51.822808280479997 ], [ 5.3997105360031, 51.819910245620001 ], [ 5.3944265842438, 51.813616159502999 ], [ 5.384202003479, 51.806120473996003 ], [ 5.3621864318848, 51.778249475724998 ], [ 5.3596758842468, 51.759579551652998 ], [ 5.346919298172, 51.753854863420997 ], [ 5.3269529342651, 51.747704331759998 ], [ 5.2962899208069, 51.736995360582 ], [ 5.2826750278473, 51.740569728704997 ], [ 5.2711200714111, 51.739892082120001 ], [ 5.2485251426697, 51.733540312269 ], [ 5.2416238188744, 51.735536963751997 ], [ 5.2360957860947, 51.739659553989 ], [ 5.2209198474884, 51.743864806447 ], [ 5.2101373672485, 51.742496315433002 ], [ 5.1965492963791, 51.740323916903002 ], [ 5.1685416698456, 51.743041059541 ], [ 5.1266026496887, 51.737633186770999 ], [ 5.1253232359886, 51.744067419312003 ], [ 5.1369573175907, 51.749622311491002 ], [ 5.1430982351303, 51.754645205787 ], [ 5.137737840414, 51.757143991386997 ], [ 5.135124027729, 51.761448883713001 ], [ 5.1397669315338, 51.769632525837999 ], [ 5.1381093263626, 51.772454127419003 ], [ 5.11908441782, 51.777847874787 ], [ 5.1061387360096, 51.784580026477002 ], [ 5.0988075882196, 51.787574075846997 ], [ 5.0923347473145, 51.787382442729999 ], [ 5.0835907459259, 51.781143552 ], [ 5.0750184059143, 51.779046028994003 ], [ 5.0691443681717, 51.779271716530999 ], [ 5.0644719600677, 51.781515254765999 ], [ 5.0587320327759, 51.787594815313 ], [ 5.0451493263245, 51.799141069271002 ], [ 5.0190353393555, 51.806545041699003 ], [ 5.0138318538666, 51.808069140469001 ], [ 5.011031627655, 51.811503563689001 ], [ 5.0085210800171, 51.818159397392002 ], [ 5.00075340271, 51.821070808274001 ], [ 5.0264167785645, 51.818829237514997 ], [ 5.0312232971191, 51.840855458817998 ], [ 5.0069546699524, 51.843071076866998 ], [ 4.9988222122192, 51.844809357548002 ], [ 5.0007694959641, 51.848047534142999 ], [ 4.9985110759735, 51.851391513705998 ], [ 4.9972558021545, 51.856276350747997 ], [ 4.993662647903, 51.860950520891997 ], [ 4.994355160743, 51.861723782184001 ], [ 4.9959059804678, 51.861807962339 ], [ 5.0017659366131, 51.858858237198 ], [ 5.0072202086449, 51.857888429397001 ], [ 5.0172704458237, 51.859182399102998 ], [ 5.0268486142159, 51.858462013134996 ], [ 5.038400888443, 51.859172874098 ], [ 5.0420781970024, 51.860374044159002 ], [ 5.0471817702055, 51.85881904979 ], [ 5.0541736185551, 51.857635076995997 ], [ 5.0587622076273, 51.858279947680998 ], [ 5.0628358125687, 51.859825953471997 ], [ 5.0631560012698, 51.861476857135997 ], [ 5.0599571317434, 51.862809674676001 ], [ 5.0534735620022, 51.865316187102003 ], [ 5.0515390187502, 51.867239572168998 ], [ 5.0517502427101, 51.869692841456001 ], [ 5.0526712462306, 51.871701093736 ], [ 5.0554805248976, 51.873444297551998 ], [ 5.0641889870167, 51.874704959573002 ], [ 5.0711345672607, 51.874152800064003 ], [ 5.0741010904312, 51.874368489795998 ], [ 5.0792133808136, 51.875432019625002 ], [ 5.0823944807053, 51.876972416629997 ], [ 5.0842881202698, 51.879095602431001 ], [ 5.0868737697601, 51.882043638399999 ], [ 5.0872278213501, 51.885362327659998 ], [ 5.0869810581207, 51.887740474346003 ], [ 5.0925707817078, 51.889323904252997 ], [ 5.0952664017677, 51.888713259835001 ], [ 5.0974470376968, 51.888076119794 ], [ 5.1051208376884, 51.889160638903 ], [ 5.1125371456146, 51.887914298441999 ], [ 5.1174563169479, 51.892109463234 ], [ 5.118511095643, 51.896457389759 ], [ 5.1166476309299, 51.896991637867998 ], [ 5.1170157641172, 51.898479213061002 ], [ 5.1189288496971, 51.898483816239001 ], [ 5.1233196258545, 51.903586329698001 ], [ 5.1233196258545, 51.903586329698001 ], [ 5.1233196258545, 51.903586329698001 ], [ 5.1233196258545, 51.903586329698001 ], [ 5.1233196258545, 51.903586329698001 ], [ 5.1233196258545, 51.903586329698001 ], [ 5.4094791412354, 51.886703309936998 ], [ 5.469388961792, 51.896516095811002 ], [ 5.5153298377991, 51.906287024199997 ], [ 5.5890798568726, 51.911820292963 ], [ 5.7424807548523, 51.900832513212997 ], [ 5.8505630493164, 51.890265824069999 ] ] ] } }
]
}
