{
"type": "FeatureCollection",
"name": "Deelgebied - C",
"features": [
{ "type": "Feature", "properties": { "Name": "Charlie", "description": null }, "geometry": { "type": "Polygon", "coordinates": [ [ [ 6.4259719848633, 52.147816036320997 ], [ 6.4707541465759, 52.200124086907003 ], [ 6.4728516340256, 52.186677910138002 ], [ 6.494175195694, 52.177438500146003 ], [ 6.5142971277237, 52.181356191756997 ], [ 6.5266942977905, 52.179905600586999 ], [ 6.5549218654633, 52.177004276306 ], [ 6.5891575813293, 52.18262912054 ], [ 6.606211066246, 52.172770371715004 ], [ 6.6027530282736, 52.169938908227003 ], [ 6.6029184870422, 52.169059925265003 ], [ 6.604199744761, 52.167391259585003 ], [ 6.607191413641, 52.164580225095001 ], [ 6.6092875599861, 52.165234209025002 ], [ 6.6120207309723, 52.163014737730002 ], [ 6.6145734395832, 52.164231789638002 ], [ 6.6186281852424, 52.166001599611 ], [ 6.6215671319515, 52.168245136042003 ], [ 6.6232511820272, 52.168129746204997 ], [ 6.6251927241683, 52.168804010362997 ], [ 6.6264357604086, 52.171527284790997 ], [ 6.6252755373716, 52.172197513542002 ], [ 6.6255269944668, 52.172457007281999 ], [ 6.6292914748192, 52.172081131547003 ], [ 6.630184315145, 52.173470910071998 ], [ 6.635239943862, 52.171991891437003 ], [ 6.6402013599873, 52.167875548201003 ], [ 6.6448885202408, 52.174145530213998 ], [ 6.6655710339546, 52.167484827434997 ], [ 6.6653122007847, 52.166852263806 ], [ 6.6713190078735, 52.165745872770003 ], [ 6.6733065247536, 52.163602110436997 ], [ 6.6725045442581, 52.161431918898998 ], [ 6.6736337542534, 52.161446727236999 ], [ 6.6739046573639, 52.158670900589001 ], [ 6.6705840826035, 52.156383634139999 ], [ 6.6736015677452, 52.154976660062999 ], [ 6.6728787124157, 52.152851304370998 ], [ 6.6736330837011, 52.152051904107999 ], [ 6.6728086397052, 52.150519920154998 ], [ 6.6713833808899, 52.150304528900001 ], [ 6.6736096143723, 52.148352588149002 ], [ 6.6743338108063, 52.143319280367002 ], [ 6.6720780730247, 52.138866517876998 ], [ 6.6665607690811, 52.134834778871998 ], [ 6.6627359390259, 52.129826287838 ], [ 6.6767022013664, 52.12607037339 ], [ 6.697878241539, 52.123368092698001 ], [ 6.7161977291107, 52.118173852363 ], [ 6.7600464820862, 52.119379418012997 ], [ 6.7550012469292, 52.095457999028 ], [ 6.7498775571585, 52.095592707215999 ], [ 6.7437238991261, 52.093618182257003 ], [ 6.7452819272876, 52.089994147493002 ], [ 6.750959828496, 52.087846531620997 ], [ 6.7496126890182, 52.084605856579003 ], [ 6.7347827553749, 52.074384136643999 ], [ 6.7132915556431, 52.073282042377997 ], [ 6.6948902606964, 52.069858534929999 ], [ 6.6962823271751, 52.068155339059999 ], [ 6.6899402439594, 52.056749837411999 ], [ 6.6871125251055, 52.056535023583997 ], [ 6.6865569725633, 52.05262758181 ], [ 6.6887480020523, 52.052520165113997 ], [ 6.6884422302246, 52.039821321105002 ], [ 6.7136549949646, 52.040098497293002 ], [ 6.7536413669586, 52.028198172690999 ], [ 6.7641073465347, 52.022669351597003 ], [ 6.7663335800171, 52.019041413452001 ], [ 6.7728513479233, 52.018371252553997 ], [ 6.8116414546967, 51.998258454123999 ], [ 6.8078541755676, 51.994909295729997 ], [ 6.8265545368195, 51.993303988980998 ], [ 6.8301567435265, 51.986348646464997 ], [ 6.8298979103565, 51.976209353649999 ], [ 6.8330723047256, 51.972413239813001 ], [ 6.8286037445068, 51.963995377182997 ], [ 6.8138301372528, 51.963922660057001 ], [ 6.8121939897537, 51.962035278827003 ], [ 6.7992281913757, 51.958666882639001 ], [ 6.7972433567047, 51.943094265039001 ], [ 6.7943438887596, 51.934940454991001 ], [ 6.7856079339981, 51.931442676110002 ], [ 6.7880487442017, 51.929315760953003 ], [ 6.7701423168182, 51.915903619879998 ], [ 6.764163672924, 51.915461884030002 ], [ 6.754065155983, 51.913114158779003 ], [ 6.7537808418274, 51.910324524385999 ], [ 6.751007437706, 51.907375861222 ], [ 6.7369043827057, 51.904638825542001 ], [ 6.7323875427246, 51.898740559021 ], [ 6.7223024368286, 51.896436648658998 ], [ 6.702926158905, 51.906300262499002 ], [ 6.7040526866913, 51.909536909403997 ], [ 6.6998094320297, 51.909248996278002 ], [ 6.6955661773682, 51.915738176250002 ], [ 6.6839361190796, 51.917882278444999 ], [ 6.6372656822205, 51.904340951861997 ], [ 6.6338431835175, 51.900852373070997 ], [ 6.6264671087265, 51.901544152638998 ], [ 6.6221809387207, 51.900964912098999 ], [ 6.5843081474304, 51.893669151874001 ], [ 6.5684616565704, 51.888537576457999 ], [ 6.5605115890503, 51.882345799093997 ], [ 6.5549111366272, 51.882253081507997 ], [ 6.5517139434814, 51.886398695251998 ], [ 6.5286898612976, 51.876451229354998 ], [ 6.5248167514801, 51.873861348186999 ], [ 6.515793800354, 51.873179078452999 ], [ 6.5020394325256, 51.867786796190003 ], [ 6.500655412674, 51.862652265693001 ], [ 6.4822822809219, 51.857116254037997 ], [ 6.4746406674385, 51.856150446733999 ], [ 6.4735221862793, 51.853912278430997 ], [ 6.4615702629089, 51.855940053714001 ], [ 6.4513349533081, 51.865388546501997 ], [ 6.4325165748596, 51.859889314504997 ], [ 6.4122927188873, 51.871344185193003 ], [ 6.4021807909012, 51.869227672008002 ], [ 6.3913822174072, 51.873470534752002 ], [ 6.3875412940979, 51.861744552245 ], [ 6.4005553722382, 51.856092464504002 ], [ 6.4091062545776, 51.854044815553998 ], [ 6.4014887809753, 51.843798544728998 ], [ 6.4081513881683, 51.836128884498997 ], [ 6.4027279615402, 51.836642666612001 ], [ 6.4079475402832, 51.827821374271998 ], [ 6.4011253416538, 51.826898867649 ], [ 6.392243206501, 51.832023389112003 ], [ 6.380678191781, 51.835619654345997 ], [ 6.3684265315533, 51.833699941627003 ], [ 6.3617759943008, 51.835376431728001 ], [ 6.3596329092979, 51.846471349612003 ], [ 6.346846818924, 51.850777661681001 ], [ 6.3253945112228, 51.851967251250002 ], [ 6.3063454627991, 51.849127426872002 ], [ 6.2986314296722, 51.868257156128998 ], [ 6.2837076187134, 51.872119221443 ], [ 6.2782479822636, 51.874668632136 ], [ 6.2700417637825, 51.874674427968998 ], [ 6.2615257501602, 51.868114723708999 ], [ 6.2458670139313, 51.870045803937998 ], [ 6.2412133812904, 51.868838474470003 ], [ 6.2324398756027, 51.870174981303002 ], [ 6.2145495414734, 51.867760296892001 ], [ 6.1983825266361, 51.873264362736002 ], [ 6.1835888028145, 51.882370634129003 ], [ 6.1818104982376, 51.885746415561002 ], [ 6.1913618445396, 51.887426761538997 ], [ 6.1887560784817, 51.888902599809001 ], [ 6.1913001537323, 51.891861579900002 ], [ 6.1796513199806, 51.895448512972997 ], [ 6.1693757772446, 51.901577251873 ], [ 6.1654517054558, 51.898278793350997 ], [ 6.1584377288818, 51.905783965962002 ], [ 6.1249852180481, 51.898568431870999 ], [ 6.1179953813553, 51.901795706203998 ], [ 6.1147820949554, 51.898244036603003 ], [ 6.1124271154404, 51.899141083106997 ], [ 6.1098763346672, 51.895140647162997 ], [ 6.1028623580933, 51.893046772661997 ], [ 6.1055780947208, 51.891602521732999 ], [ 6.1161902546883, 51.892700818786999 ], [ 6.1223083734512, 51.890447915255002 ], [ 6.1376345157623, 51.885729860116001 ], [ 6.1435809731483, 51.876005793662998 ], [ 6.1447209119797, 51.869459532770001 ], [ 6.1672568321228, 51.861665043625003 ], [ 6.1639335751534, 51.859755138094002 ], [ 6.1637002229691, 51.852755875469001 ], [ 6.1680400371552, 51.84129958546 ], [ 6.1011403799057, 51.850628546564003 ], [ 6.0631656646729, 51.865574051041001 ], [ 6.0562133789062, 51.885921902905999 ], [ 6.0497760772705, 51.913938110162 ], [ 6.0416221618652, 51.942148492442001 ], [ 6.010594367981, 52.006151435878998 ], [ 6.0168846957472, 52.007133863268997 ], [ 6.0306433251142, 52.010757112176002 ], [ 6.0466958314325, 52.015044644100001 ], [ 6.0507333377711, 52.016531558940997 ], [ 6.0524091859897, 52.016746634028998 ], [ 6.0549858783932, 52.016882454699001 ], [ 6.0589810841448, 52.018236832470997 ], [ 6.078656792349, 52.028406443744998 ], [ 6.0911290833947, 52.035933373345003 ], [ 6.1027591416832, 52.040605948604998 ], [ 6.4259719848633, 52.147816036320997 ] ] ] } }
]
}
